NOAA 1 [-]              
1 04793U 70106A   23172.44748153 -.00000032  00000+0  72892-4 0  9995
2 04793 101.5020 231.1523 0031125 324.0679  46.8189 12.54016089403845
NOAA 2 (ITOS-D) [-]     
1 06235U 72082A   23172.61932896 -.00000025  00000+0  13142-3 0  9995
2 06235 101.9905 162.7634 0004545  89.2827  26.7089 12.53163673318210
NOAA 3 [-]              
1 06920U 73086A   23172.55736473 -.00000056  00000+0 -72716-4 0  9995
2 06920 102.2477 160.8129 0006461 335.2070 136.2312 12.40356587246557
NOAA 4 [-]              
1 07529U 74089A   23172.59620087 -.00000044  00000+0  14848-4 0  9990
2 07529 101.9552 158.9863 0009381 116.5359 357.9391 12.53169433222784
NOAA 5 [-]              
1 09057U 76077A   23172.52904117 -.00000048  00000+0 -19164-4 0  9990
2 09057 102.1539 142.3965 0009579 176.6240 298.0627 12.37785085119405
TIROS N [-]             
1 11060U 78096A   23172.54514030  .00000241  00000+0  13680-3 0  9992
2 11060  98.5824 220.4852 0011155 154.2659 205.9074 14.18582216523931
NOAA 6 [-]              
1 11416U 79057A   23172.54120918  .00000379  00000+0  15143-3 0  9991
2 11416  98.6505 188.8330 0009136 246.5362 113.4863 14.34074749294415
NOAA 7 [-]              
1 12553U 81059A   23172.57148832  .00000052  00000+0  48034-4 0  9991
2 12553  98.9457 225.5258 0012183 141.5398 218.6647 14.17417116170088
NOAA 8 [-]              
1 13923U 83022A   23172.59541157  .00000178  00000+0  87922-4 0  9992
2 13923  98.7120 167.3145 0014446 206.2142 153.8309 14.28995727 95120
NOAA 9 [-]              
1 15427U 84123A   23172.59249432  .00000168  00000+0  10783-3 0  9996
2 15427  99.0894 156.7499 0014448 195.8864 274.6341 14.16372245988864
NOAA 10 [-]             
1 16969U 86073A   23172.57930829  .00000175  00000+0  87376-4 0  9990
2 16969  98.6040 157.7373 0011313 315.5081 154.1016 14.28376333913523
NOAA 11 [-]             
1 19531U 88089A   23172.50618727  .00000069  00000+0  56628-4 0  9998
2 19531  98.4658 147.1417 0010827 189.5444 170.5527 14.15404832793029
NOAA 12 [-]             
1 21263U 91032A   23172.55395662  .00000139  00000+0  76110-4 0  9996
2 21263  98.5315 167.4212 0013307 344.6207  15.4567 14.26128047669330
NOAA 13 [-]             
1 22739U 93050A   23172.53912029  .00000193  00000+0  12600-3 0  9990
2 22739  98.5533 139.9311 0009828  14.5344 345.6110 14.13003658539179
NOAA 14 [-]             
1 23455U 94089A   23172.58548733  .00000079  00000+0  62552-4 0  9996
2 23455  98.4250 183.8666 0009199 350.5105   9.5894 14.14279602468889
NOAA 15 [B]             
1 25338U 98030A   23172.57625724  .00000272  00000+0  13141-3 0  9997
2 25338  98.6048 201.5580 0009272 304.7362  55.2945 14.26337693305635
NOAA 16 [-]             
1 26536U 00055A   23172.57961922  .00000113  00000+0  82410-4 0  9991
2 26536  98.5826 222.7104 0010391 184.6287 175.4792 14.13439159469497
NOAA 17 [-]             
1 27453U 02032A   23172.57304035  .00000208  00000+0  10721-3 0  9993
2 27453  98.7163 119.4551 0010629 280.5357  79.4625 14.25315461 91433
NOAA 18 [B]             
1 28654U 05018A   23172.52749018  .00000240  00000+0  15239-3 0  9998
2 28654  98.9095 246.8968 0014296  12.4506 347.7017 14.12956188932097
NOAA 19 [+]             
1 33591U 09005A   23172.57248770  .00000236  00000+0  15164-3 0  9990
2 33591  99.0989 218.5696 0013113 227.4619 132.5446 14.12773529740304
SUOMI NPP [+]           
1 37849U 11061A   23172.54952051  .00000108  00000+0  71870-4 0  9991
2 37849  98.7045 111.1932 0000868  87.0915  22.5449 14.19570507603561
NOAA 20 [+]             
1 43013U 17073A   23172.56307406  .00000104  00000+0  69889-4 0  9993
2 43013  98.7124 110.9761 0001627  90.4260 269.7103 14.19539238289592
NOAA 21 (JPSS-2) [+]    
1 54234U 22150A   23172.50871391  .00000138  00000+0  86062-4 0  9994
2 54234  98.7165 110.3923 0001550  78.0451 282.0899 14.19555327 31667
